{
  "type": "FeatureCollection",
  "features": [
    {
      "type": "Feature",
      "properties": {
        "norad_id": 29816,
        "name": "FENGYUN 1C DEB",
        "group": "fengyun-1c-debris",
        "lat": -72.4560667620474,
        "lon": -6.241714105861875,
        "alt_km": 688.865400970215,
        "timestamp": "2025-12-09T23:33:24.126082+00:00",
        "meta_object_name": "FENGYUN 1C DEB",
        "meta_object_id": "1999-025DJ",
        "meta_epoch": "2025-12-09T14:10:17.388192",
        "meta_mean_motion": 14.44245129,
        "meta_eccentricity": 0.02378173,
        "meta_inclination": 98.9927,
        "meta_ra_of_asc_node": 203.4045,
        "meta_arg_of_pericenter": 186.5262,
        "meta_mean_anomaly": 193.7591,
        "meta_ephemeris_type": 0,
        "meta_classification_type": "U",
        "meta_norad_cat_id": 29816,
        "meta_element_set_no": 999,
        "meta_rev_at_epoch": 98142,
        "meta_bstar": 0.0013866821,
        "meta_mean_motion_dot": 6.682e-05,
        "meta_mean_motion_ddot": 0,
        "tle_line1": "1 29816U 99025DJ  25343.59047903  .00006682  00000+0  13867-2 0  9993",
        "tle_line2": "2 29816  98.9927 203.4045 0237817 186.5262 193.7591 14.44245129981423"
      },
      "geometry": {
        "type": "Point",
        "coordinates": [
          -6.241714105861875,
          -72.4560667620474
        ]
      }
    },
    {
      "type": "Feature",
      "properties": {
        "norad_id": 29817,
        "name": "FENGYUN 1C DEB",
        "group": "fengyun-1c-debris",
        "lat": 49.16228759343826,
        "lon": 163.32947150969727,
        "alt_km": 842.978591817543,
        "timestamp": "2025-12-09T23:33:24.126092+00:00",
        "meta_object_name": "FENGYUN 1C DEB",
        "meta_object_id": "1999-025DK",
        "meta_epoch": "2025-12-09T11:46:51.242304",
        "meta_mean_motion": 14.14246352,
        "meta_eccentricity": 0.00124475,
        "meta_inclination": 98.5572,
        "meta_ra_of_asc_node": 332.8273,
        "meta_arg_of_pericenter": 24.5755,
        "meta_mean_anomaly": 128.6258,
        "meta_ephemeris_type": 0,
        "meta_classification_type": "U",
        "meta_norad_cat_id": 29817,
        "meta_element_set_no": 999,
        "meta_rev_at_epoch": 97349,
        "meta_bstar": 0.00054685137,
        "meta_mean_motion_dot": 1.003e-05,
        "meta_mean_motion_ddot": 0,
        "tle_line1": "1 29817U 99025DK  25343.49087086  .00001003  00000+0  54685-3 0  9995",
        "tle_line2": "2 29817  98.5572 332.8273 0012447  24.5755 128.6258 14.14246352973495"
      },
      "geometry": {
        "type": "Point",
        "coordinates": [
          163.32947150969727,
          49.16228759343826
        ]
      }
    },
    {
      "type": "Feature",
      "properties": {
        "norad_id": 29818,
        "name": "FENGYUN 1C DEB",
        "group": "fengyun-1c-debris",
        "lat": -39.18562081841599,
        "lon": -131.40849918346373,
        "alt_km": 859.5595838662057,
        "timestamp": "2025-12-09T23:33:24.126102+00:00",
        "meta_object_name": "FENGYUN 1C DEB",
        "meta_object_id": "1999-025DL",
        "meta_epoch": "2025-12-09T10:54:20.397600",
        "meta_mean_motion": 14.04498536,
        "meta_eccentricity": 0.01154328,
        "meta_inclination": 98.7217,
        "meta_ra_of_asc_node": 220.8967,
        "meta_arg_of_pericenter": 35.0314,
        "meta_mean_anomaly": 142.8179,
        "meta_ephemeris_type": 0,
        "meta_classification_type": "U",
        "meta_norad_cat_id": 29818,
        "meta_element_set_no": 999,
        "meta_rev_at_epoch": 96763,
        "meta_bstar": 0.00026997275,
        "meta_mean_motion_dot": 4.15e-06,
        "meta_mean_motion_ddot": 0,
        "tle_line1": "1 29818U 99025DL  25343.45440275  .00000415  00000+0  26997-3 0  9996",
        "tle_line2": "2 29818  98.7217 220.8967 0115432  35.0314 142.8179 14.04498536967637"
      },
      "geometry": {
        "type": "Point",
        "coordinates": [
          -131.40849918346373,
          -39.18562081841599
        ]
      }
    },
    {
      "type": "Feature",
      "properties": {
        "norad_id": 29819,
        "name": "FENGYUN 1C DEB",
        "group": "fengyun-1c-debris",
        "lat": 78.43560020535924,
        "lon": -163.48420923956215,
        "alt_km": 750.2297258500948,
        "timestamp": "2025-12-09T23:33:24.126113+00:00",
        "meta_object_name": "FENGYUN 1C DEB",
        "meta_object_id": "1999-025DM",
        "meta_epoch": "2025-12-09T11:40:46.627392",
        "meta_mean_motion": 14.02188893,
        "meta_eccentricity": 0.01915238,
        "meta_inclination": 98.7312,
        "meta_ra_of_asc_node": 327.363,
        "meta_arg_of_pericenter": 76.142,
        "meta_mean_anomaly": 43.906,
        "meta_ephemeris_type": 0,
        "meta_classification_type": "U",
        "meta_norad_cat_id": 29819,
        "meta_element_set_no": 999,
        "meta_rev_at_epoch": 96574,
        "meta_bstar": 0.00065058791,
        "meta_mean_motion_dot": 1.129e-05,
        "meta_mean_motion_ddot": 0,
        "tle_line1": "1 29819U 99025DM  25343.48665078  .00001129  00000+0  65059-3 0  9995",
        "tle_line2": "2 29819  98.7312 327.3630 0191523  76.1420  43.9060 14.02188893965743"
      },
      "geometry": {
        "type": "Point",
        "coordinates": [
          -163.48420923956215,
          78.43560020535924
        ]
      }
    },
    {
      "type": "Feature",
      "properties": {
        "norad_id": 29820,
        "name": "FENGYUN 1C DEB",
        "group": "fengyun-1c-debris",
        "lat": 69.49149174161748,
        "lon": -33.442304412744924,
        "alt_km": 929.9927888654665,
        "timestamp": "2025-12-09T23:33:24.126123+00:00",
        "meta_object_name": "FENGYUN 1C DEB",
        "meta_object_id": "1999-025DN",
        "meta_epoch": "2025-12-08T23:23:03.348384",
        "meta_mean_motion": 14.02594319,
        "meta_eccentricity": 0.0071907,
        "meta_inclination": 98.8315,
        "meta_ra_of_asc_node": 350.1403,
        "meta_arg_of_pericenter": 248.3321,
        "meta_mean_anomaly": 140.3916,
        "meta_ephemeris_type": 0,
        "meta_classification_type": "U",
        "meta_norad_cat_id": 29820,
        "meta_element_set_no": 999,
        "meta_rev_at_epoch": 96507,
        "meta_bstar": 0.00072652,
        "meta_mean_motion_dot": 1.102e-05,
        "meta_mean_motion_ddot": 0,
        "tle_line1": "1 29820U 99025DN  25342.97434431  .00001102  00000+0  72652-3 0  9995",
        "tle_line2": "2 29820  98.8315 350.1403 0071907 248.3321 140.3916 14.02594319965079"
      },
      "geometry": {
        "type": "Point",
        "coordinates": [
          -33.442304412744924,
          69.49149174161748
        ]
      }
    },
    {
      "type": "Feature",
      "properties": {
        "norad_id": 29821,
        "name": "FENGYUN 1C DEB",
        "group": "fengyun-1c-debris",
        "lat": 32.030667601298425,
        "lon": 33.39275219891436,
        "alt_km": 871.7857672599639,
        "timestamp": "2025-12-09T23:33:24.126133+00:00",
        "meta_object_name": "FENGYUN 1C DEB",
        "meta_object_id": "1999-025DP",
        "meta_epoch": "2025-12-09T15:34:48.328608",
        "meta_mean_motion": 14.11046028,
        "meta_eccentricity": 0.03763581,
        "meta_inclination": 98.8736,
        "meta_ra_of_asc_node": 38.6723,
        "meta_arg_of_pericenter": 129.4236,
        "meta_mean_anomaly": 20.0726,
        "meta_ephemeris_type": 0,
        "meta_classification_type": "U",
        "meta_norad_cat_id": 29821,
        "meta_element_set_no": 999,
        "meta_rev_at_epoch": 96467,
        "meta_bstar": 0.0010129292,
        "meta_mean_motion_dot": 3.507e-05,
        "meta_mean_motion_ddot": 0,
        "tle_line1": "1 29821U 99025DP  25343.64917047  .00003507  00000+0  10129-2 0  9991",
        "tle_line2": "2 29821  98.8736  38.6723 0376358 129.4236  20.0726 14.11046028964679"
      },
      "geometry": {
        "type": "Point",
        "coordinates": [
          33.39275219891436,
          32.030667601298425
        ]
      }
    },
    {
      "type": "Feature",
      "properties": {
        "norad_id": 29827,
        "name": "FENGYUN 1C DEB",
        "group": "fengyun-1c-debris",
        "lat": -80.37076973768053,
        "lon": 38.39330857974135,
        "alt_km": 816.9165011790801,
        "timestamp": "2025-12-09T23:33:24.126144+00:00",
        "meta_object_name": "FENGYUN 1C DEB",
        "meta_object_id": "1999-025DV",
        "meta_epoch": "2025-12-08T22:52:37.934112",
        "meta_mean_motion": 14.21677819,
        "meta_eccentricity": 0.0025205,
        "meta_inclination": 98.6017,
        "meta_ra_of_asc_node": 334.2475,
        "meta_arg_of_pericenter": 333.6576,
        "meta_mean_anomaly": 80.9572,
        "meta_ephemeris_type": 0,
        "meta_classification_type": "U",
        "meta_norad_cat_id": 29827,
        "meta_element_set_no": 999,
        "meta_rev_at_epoch": 97809,
        "meta_bstar": 0.00051498,
        "meta_mean_motion_dot": 1.091e-05,
        "meta_mean_motion_ddot": 0,
        "tle_line1": "1 29827U 99025DV  25342.95321683  .00001091  00000+0  51498-3 0  9996",
        "tle_line2": "2 29827  98.6017 334.2475 0025205 333.6576  80.9572 14.21677819978096"
      },
      "geometry": {
        "type": "Point",
        "coordinates": [
          38.39330857974135,
          -80.37076973768053
        ]
      }
    }
  ]
}